[{"OBJECT_NAME":"SCS-01 B","OBJECT_ID":"2025-100B","EPOCH":"2026-03-09T21:49:11.508672","MEAN_MOTION":15.3317485,"ECCENTRICITY":0.00088698,"INCLINATION":97.3706,"RA_OF_ASC_NODE":145.9041,"ARG_OF_PERICENTER":288.6157,"MEAN_ANOMALY":71.4122,"EPHEMERIS_TYPE":0,"CLASSIFICATION_TYPE":"U","NORAD_CAT_ID":63983,"ELEMENT_SET_NO":999,"REV_AT_EPOCH":4567,"BSTAR":0.00098809397,"MEAN_MOTION_DOT":0.00031724,"MEAN_MOTION_DDOT":0},{"OBJECT_NAME":"STARLINK-34731","OBJECT_ID":"2025-161Q","EPOCH":"2026-03-09T21:54:52.015392","MEAN_MOTION":15.30197953,"ECCENTRICITY":0.00024547,"INCLINATION":53.1578,"RA_OF_ASC_NODE":293.196,"ARG_OF_PERICENTER":179.6153,"MEAN_ANOMALY":180.485,"EPHEMERIS_TYPE":0,"CLASSIFICATION_TYPE":"U","NORAD_CAT_ID":65029,"ELEMENT_SET_NO":999,"REV_AT_EPOCH":3536,"BSTAR":0.00084822024,"MEAN_MOTION_DOT":0.00024846,"MEAN_MOTION_DDOT":0}]
